#aV2024 10 12  0  0  0.00000000     288 DD+AD WGS84 FIT  NGA
## 2335 518400.00000000   300.00000000 60595 0.0000000000000
+   31     2  3  4  5  6  7  8  9 10 11 12 13 14 15 16 17 18
+         19 20 21 22 23 24 25 26 27 28 29 30 31 32  0  0  0
+          0  0  0  0  0  0  0  0  0  0  0  0  0  0  0  0  0
+          0  0  0  0  0  0  0  0  0  0  0  0  0  0  0  0  0
+          0  0  0  0  0  0  0  0  0  0  0  0  0  0  0  0  0
++         2  2  2  2  2  2  2  2  2  2  2  2  2  2  2  2  2
++         2  2  2  2  2  2  2  2  2  2  2  2  2  2  0  0  0
++         0  0  0  0  0  0  0  0  0  0  0  0  0  0  0  0  0
++         0  0  0  0  0  0  0  0  0  0  0  0  0  0  0  0  0
++         0  0  0  0  0  0  0  0  0  0  0  0  0  0  0  0  0
%c cc cc ccc ccc cccc cccc cccc cccc ccccc ccccc ccccc ccccc
%c cc cc ccc ccc cccc cccc cccc cccc ccccc ccccc ccccc ccccc
%f  0.0000000  0.000000000  0.00000000000  0.000000000000000
%f  0.0000000  0.000000000  0.00000000000  0.000000000000000
%i    0    0    0    0      0      0      0      0         0
%i    0    0    0    0      0      0      0      0         0
/*      NGA, ST. LOUIS,MO.                                  
/*   EPHEMERIS COMPUTED FROM 2 DAYS OF DATA                 
/*   EPOCHA v9 SMOOTHER                                     
/*   G2296 IERS2010 SATIGS SATAPC                           
*  2024 10 12  0  0  0.00000000
P  2   7241.104838 -18315.843723 -17183.030343   -339.075449                    
V  2  20511.025676 -10287.162710  19422.656110      0.082076                    
P  3  -6079.957654 -18545.590822 -18232.067877    567.307837                    
V  3  19474.101496  11731.637353 -18492.739752      0.118781                    
P  4    356.414253 -26299.886107   3080.553942    460.034474                    
V  4   3124.512261  -3630.502908 -31637.648689      0.068167                    
P  5 -10207.819614  11102.254447  21686.579169   -189.492582                    
V  5 -23889.562352 -14466.119005  -3744.039534     -0.012327                    
P  6 -24033.543066   3707.390885 -10743.191918    -31.909108                    
V  6  11632.907648  -7351.079312 -28273.840713     -0.274419                    
P  7 -11025.468861 -11790.808421  21674.614462    -28.543883                    
V  7  23373.569881 -11992.239439   5048.556788      0.035124                    
P  8   6727.978340 -23906.366957   8660.147792    381.461055                    
V  8   2991.788377  11372.973004  29123.208480      0.117179                    
P  9  -7730.646385 -22258.129142  12100.430654    394.723768                    
V  9   2983.067946 -15447.203244 -26366.443512      0.164774                    
P 10  23672.981602   9647.346792  -7613.373121   -155.328929                    
V 10   7289.824381   6829.962310  30126.698831     -0.132943                    
P 11 -22934.916351  12852.446194   3549.461793   -743.157016                    
V 11  -5167.460077   -621.708367 -31496.063828     -0.031071                    
P 12    910.230256  18039.309054 -19768.867458   -544.481383                    
V 12 -20147.693734 -13948.818212 -13810.057941     -0.026871                    
P 13 -13327.227788  18021.533468  13832.005244    681.011982                    
V 13   1525.687193 -18088.113451  24858.135419      0.018106                    
P 14 -23244.837187 -12405.032795  -4175.363800    515.509579                    
V 14  -2642.614325  -5558.302887  30661.331939      0.084030                    
P 15  -3290.410901  24939.702241   7745.925696    214.663276                    
V 15  -4598.999949 -10214.755121  29151.301872      0.044461                    
P 16  15291.991128  -6214.406028  20559.667110   -157.324309                    
V 16  20569.853442  17173.833728  -9506.845968      0.099971                    
P 17 -13629.404122  -7838.321911 -20957.731215    598.549958                    
V 17   4055.755120 -27323.533342   7610.868128     -0.127889                    
P 18  11791.041224  10483.086206  21426.789976   -657.606776                    
V 18 -24238.037030  12052.491728   7229.290173     -0.014389                    
P 19 -15452.432905   1771.859085 -21629.149070    549.359691                    
V 19   3827.159866 -26891.257284  -5388.929124      0.047067                    
P 20 -19691.954261   4774.659602  17165.243582    369.764643                    
V 20 -19239.921265 -10277.047537 -19440.654663     -0.003775                    
P 21  12335.712244 -18541.217455 -13210.324273     99.959882                    
V 21  16794.512651  -6828.946867  25580.939991     -0.008076                    
P 22 -22329.270041  -7375.908085 -11639.767054    -70.210456                    
V 22 -10445.086318 -11799.930504  26893.168467     -0.033914                    
P 23  20184.449601  16656.132043   5232.108413    339.655778                    
V 23  -6574.822746  -1825.515114  31141.532268      0.081891                    
P 24  -8181.589236  19449.815321 -16336.535000   -485.038704                    
V 24 -18382.246080   8646.915449  20468.932024      0.011069                    
P 25  13978.536237  19291.182874 -12358.734444    499.545291                    
V 25 -13990.853122  -6088.511203 -25799.544345     -0.001163                    
P 26  23077.510153   1327.759255  13244.659474     58.003785                    
V 26  13640.008748  10533.560927 -24133.531727     -0.093249                    
P 27  12568.744312 -15743.751270  16790.717722    -34.495965                    
V 27   1015.429877  22138.922975  20073.828936     -0.002485                    
P 28  23226.953486  -2522.410492 -12651.598747   -442.706708                    
V 28 -13032.084225   9622.061061 -25867.702009     -0.129987                    
P 29   4290.089065  23775.528106  10851.831924   -571.890900                    
V 29  -4171.423521  13431.721730 -27794.533507      0.026652                    
P 30 -19946.273935  -4246.951742  17302.073485   -304.199379                    
V 30  18482.775378 -11456.587363  18391.598141      0.074242                    
P 31  24664.128935 -10282.706069  -1770.720805   -223.520441                    
V 31   -611.822347   3251.252716 -31268.270903      0.005307                    
P 32  14577.666054   5549.474342 -21306.710190   -587.780102                    
V 32  -1785.515950  27474.788919   5674.790642      0.043412                    
EOF
